sat00706
1 00706U 63049D   20046.67104160  .00000099  00000-0  12924-3 0  9991
2 00706  89.9083  94.4589 0025830 341.1123 135.8210 13.55335217769821
